#aV2023  1 29  0  0  0.00000000     288 DD+AD WGS84 FIT  NGA
## 2247      0.00000000   300.00000000 59973 0.0000000000000
+   31     1  2  3  4  5  6  7  8  9 10 11 12 13 14 15 16 17
+         18 19 20 21 22 23 24 25 26 27 29 30 31 32  0  0  0
+          0  0  0  0  0  0  0  0  0  0  0  0  0  0  0  0  0
+          0  0  0  0  0  0  0  0  0  0  0  0  0  0  0  0  0
+          0  0  0  0  0  0  0  0  0  0  0  0  0  0  0  0  0
++         2  2  2  2  2  2  2  2  2  2  2  2  2  2  2  2  2
++         2  2  2  2  2  2  2  2  2  2  2  2  2  2  0  0  0
++         0  0  0  0  0  0  0  0  0  0  0  0  0  0  0  0  0
++         0  0  0  0  0  0  0  0  0  0  0  0  0  0  0  0  0
++         0  0  0  0  0  0  0  0  0  0  0  0  0  0  0  0  0
%c cc cc ccc ccc cccc cccc cccc cccc ccccc ccccc ccccc ccccc
%c cc cc ccc ccc cccc cccc cccc cccc ccccc ccccc ccccc ccccc
%f  0.0000000  0.000000000  0.00000000000  0.000000000000000
%f  0.0000000  0.000000000  0.00000000000  0.000000000000000
%i    0    0    0    0      0      0      0      0         0
%i    0    0    0    0      0      0      0      0         0
/*      NGA, ST. LOUIS,MO.                                  
/*   EPHEMERIS COMPUTED FROM 2 DAYS OF DATA                 
/*   EPOCHA v8 SMOOTHER                                     
/*   G2139 IERS2010 SATIGS SATAPC                           
*  2023  1 29  5 15  0.00000000
P  1   6977.096818  13721.936140 -22004.167365    218.811768                    
V  1 -26837.360023   3456.645160  -6108.536747     -0.044745                    
P  2 -10479.536241 -12782.196732  21376.460791   -624.394904                    
V  2  24959.866802  -6283.501098   8964.419382      0.024173                    
P  3  11677.184796  22873.136844  -7126.194287   -368.713372                    
V  3  -7050.123343  -5720.834429 -30325.682340      0.033769                    
P  4   2569.403294  21161.623020  15780.463294    -39.026854                    
V  4  -9996.023321  17511.586337 -21970.576915      0.079150                    
P  5    567.105993 -18975.057373  18356.285162   -113.806060                    
V  5  16546.452320  17028.604127  17050.317092     -0.014567                    
P  6  25760.037431  -5703.929111   3525.132295    565.463648                    
V  6   4565.462693   1249.853013 -31886.255485      0.052617                    
P  7  20740.495086   8179.711114  15223.923355    250.786759                    
V  7 -18001.500059   4268.796726  22397.929722     -0.065994                    
P  8  -5405.836506  25210.778437  -5500.550896   -105.872396                    
V  8  -5327.532344   5465.523371  30961.162557     -0.018336                    
P  9  11322.115494  11713.745629  20892.462735   -228.135097                    
V  9 -10296.668738  24681.626130  -8273.891745      0.067995                    
P 10 -19185.186290  -5300.844622 -17569.208353    -22.407065                    
V 10 -12856.955860 -18495.809860  19126.340681     -0.016118                    
P 11  18160.820075 -12093.568270  15133.636945    -90.156322                    
V 11  19299.596114    313.823485 -22958.047488     -0.094698                    
P 12  -8802.831752 -23718.643568  -8533.097154   -333.777849                    
V 12   7705.344976   7374.680148 -29311.147499     -0.045716                    
P 13  13138.026128 -22961.628397   -136.808086    467.245084                    
V 13   2324.216000   1383.394283  32077.945850      0.062728                    
P 14  19781.511706   7805.654953 -15984.893835    -39.460138                    
V 14  10241.759142  17632.993619  21152.681154      0.082582                    
P 15   1865.508534 -25729.206565  -6127.726999      8.709135                    
V 15   5424.575183  -6158.799988  29966.345171      0.033050                    
P 16  -5295.133974  16694.098912  19527.137886   -522.274674                    
V 16 -15057.933490 -20719.370491  13881.760161      0.013972                    
P 17  16429.991719  -2467.897867 -20311.235151    696.546726                    
V 17 -10787.584335  24451.963014 -11361.480710      0.024733                    
P 18 -22833.133852  -5787.694971  12416.241303   -118.213677                    
V 18  15349.211276  -3748.077265  26347.299498     -0.155121                    
P 19  18146.216120 -12472.417772 -14881.665672    270.425149                    
V 19  -7150.668172  17244.707741 -23795.762723      0.050881                    
P 20  10324.044493 -11610.929760  21573.667546    454.099564                    
V 20  20074.885741  18607.737142    197.416916     -0.023644                    
P 21  -1935.590578  15372.322926 -20866.535241    153.720119                    
V 21 -27568.287204   5166.556399   6977.990781      0.001900                    
P 22 -17196.340616  16224.549606 -11494.161152    415.832085                    
V 22   4617.169595 -14840.757433 -27019.949960      0.079492                    
P 23 -20182.896448 -14911.339486  -8919.168961      4.031831                    
V 23  -5523.348413 -10055.480494  29161.750762      0.013567                    
P 24  -2999.903941 -15682.707819 -21566.821589    -50.527910                    
V 24  26086.902462  -5637.178660    900.112808     -0.163820                    
P 25 -16357.642108 -21119.445024   -464.701344    415.433297                    
V 25   2322.913837  -1567.497177 -31416.510581      0.033034                    
P 26 -15092.020858   6219.390654  20887.550753    240.935993                    
V 26 -17351.718441 -20467.478984  -6069.850505      0.004650                    
P 27 -12728.573420  22465.600738   4961.051278    115.472456                    
V 27   -161.418782  -7247.072297  31375.363523     -0.092318                    
P 29  -7901.023444 -14958.205535  20408.454411   -583.109354                    
V 29  12381.301983 -22869.856788 -12016.459069     -0.021401                    
P 30  26393.556065   -290.080987   4120.548831   -531.984650                    
V 30  -4640.432589   3941.110594  30433.131033      0.011066                    
P 31 -25505.350031   6467.655020   4944.036326   -207.689573                    
V 31  -6667.957918  -1837.612347 -30491.237365     -0.010884                    
P 32 -16937.213163   5904.400117 -19359.199481   -379.204601                    
V 32   7896.764117 -23764.539318 -14236.702242     -0.120422                    
EOF
